#dP2022 12 29 12  0  0.00000000      96 __u+U ITR00 EXT  IAC
## 2242 388800.00000000   900.00000000 59942 0.5000000000000
+  118   C06C07C08C09C10C11C12C13C14C16C19C20C21C22C23C24C25
+        C26C27C28C29C30C32C33C34C36C37C38C39C40C41C42C43C44
+        C45C46E01E02E03E04E05E07E08E09E10E11E12E13E14E15E18
+        E19E21E24E25E26E27E30E31E33E34E36G01G02G03G04G05G06
+        G07G08G09G10G11G12G13G14G15G16G17G18G19G20G21G22G23
+        G24G25G26G27G29G30G31G32J02J03J04R01R02R03R04R05R07
+        R08R09R11R12R13R14R15R16R17R18R19R20R21R22R24R25  0
++         0  0  0  0  0  0  0  0  0  0  0  0  0  0  0  0  0
++         0  0  0  0  0  0  0  0  0  0  0  0  0  0  0  0  0
++         0  0  8  8  9  8  7  8  8  8  8  7  7  8  7 10 10
++         7  7  7  9  9  9  8  7  8  7  8  8  8  9  8 10  7
++         8  7  8  8  7  8  9  9  9  9  9  7 10  9  8  8 10
++         9  8  8  8  9  8  6  8  0  0  0  8  8  9  9 10  9
++         9  9  9  8  9  9  8  8  7  7  7  9  9  7  7  8  0
%c M  cc GPS ccc cccc cccc cccc cccc ccccc ccccc ccccc ccccc
%c cc cc ccc ccc cccc cccc cccc cccc ccccc ccccc ccccc ccccc
%f  0.0000000  0.000000000  0.00000000000  0.000000000000000
%f  0.0000000  0.000000000  0.00000000000  0.000000000000000
%i    0    0    0    0      0      0      0      0         0
%i    0    0    0    0      0      0      0      0         0
/* IAC                                ULTRA-RAPID PREDICTION
/* S/V CLOCKS ARE ALIGNED TO GNSS TIME                      
/* G:C1WC2W R:C1PC2P E:C1XC5X C:C2IC6I J:C1CC2S             
/* PCV:IGS20_2239 OL/AL:FES2004  NONE     YN ORB:CoN CLK:CoN
*  2022 12 29 14 15  0.00000000
PC06  -1126.706708  28970.733340 -30515.853003    210.662552
PC07 -14352.179858  30219.406175  25637.164616     92.107735
PC08  -9559.066931  41048.223846   3183.985518    525.790397
PC09   5876.094422  32212.461245 -25881.696259     94.493419
PC10  -8222.719832  30083.897090  28471.954942     42.483706
PC11  22114.271110  16977.052196   1557.153958   -208.194804
PC12   8937.215090  20070.564191  17256.654522    370.186992
PC13  -5323.085660  41905.135621  -2295.195482    170.256903
PC14  17617.658641   6922.587485 -20505.431139    313.678361
PC16  -4221.981733  26591.047578 -32206.660714     92.585969
PC19 -23713.966061    626.451367  14710.260280   -900.074494
PC20 -10265.040147 -12306.827612  22853.564778    788.015890
PC21 -10425.746323  18771.068963 -17803.393622   -921.337412
PC22 -24124.618934  13806.838465  -2372.825710   -713.970906
PC23  14713.624666 -14037.789969  19102.321348   -870.810953
PC24   6683.531894  24559.111904  11460.790096   -610.711128
PC25  15763.318919   5910.251492  22246.790124     47.083808
PC26  -4101.024608  27314.018818  -4143.739218    -56.760837
PC27     14.993538 -17954.861552 -21381.401224     73.564504
PC28  16819.793371  -6440.430145 -21308.625930     52.815469
PC29 -25120.077392  -9100.460602   8060.939665     60.271501
PC30 -17527.421891 -19259.215277 -10064.254027      1.263575
PC32  10362.405590 -18880.189635  17760.212035   -666.763124
PC33  23683.460354   -700.314376 -14747.358753   -887.000252
PC34  18364.031518  18979.350775   8974.499741     71.866981
PC36 -15485.706693  -6990.313051 -22119.629750   -732.555625
PC37   5604.712484 -26777.429342   5432.161895   -864.639346
PC38 -13024.757465  38912.496395  10140.578683     48.323646
PC39  -7886.742580  23833.455067 -33813.689546     -1.220038
PC40 -22598.414581  24543.129681  25668.289546    -11.282597
PC41  24284.983265 -13626.148303   1846.369776   -433.910347
PC42   9064.986858  13031.443516 -22910.422283   -928.543127
PC43  25106.755509   9704.219352  -7323.773830     32.607262
PC44    322.638159  17945.750384  21352.296396    160.451078
PC45 -14504.613476  14465.620328 -18969.722767    -40.825982
PC46  -7755.167871 -23402.829293 -13037.848545    -22.829212
PE01 -21769.544079  13088.346926 -15210.497765   -586.357482
PE02  21750.237421 -13365.388547  14956.740390     11.498431
PE03  27373.784322  -4988.691791  10098.058435   -634.635489
PE04 -11889.330215  15001.777942 -22579.028391    -24.620540
PE05  27106.105233   8193.807041  -8614.033840   -110.358164
PE07 -10995.486556 -16411.132019  22042.660520    -11.007338
PE08  11924.526641 -14870.386007  22642.255963    -10.716148
PE09  10828.070623  16296.537017 -22216.439521   -781.178644
PE10   4000.668134  26572.350013  12420.026400   -501.266218
PE11  11443.453565  27198.854149   2250.496759    223.401010
PE12  -3576.581009  21895.593946  19592.246325   -360.849769
PE13 -10937.357030 -27324.761308  -3158.727071    430.192592
PE14  29310.355398   7420.000050   1485.268368     98.343326
PE15   3699.590317 -21672.173441 -19808.835077    697.711748
PE18 -20160.188319 -13607.361479 -10550.626079   -571.512667
PE19 -28405.618854   3100.772536  -7744.156887  -3620.928321
PE21 -16458.923810  -5131.867004 -24065.516931   -503.156002
PE24    529.443109  22430.131732  19307.646397  -1028.575565
PE25  16264.592256   5476.028671  24118.386012   -596.022792
PE26 -19171.269237 -16145.472518  15753.978914  -1867.123718
PE27  -1403.797408 -21875.937285 -19882.373251   -474.852864
PE30  14868.518223 -25361.685518  -3357.342550  -1117.250606
PE31 -14337.584695  25588.196220   4034.960030   -511.922412
PE33 -16061.724467   3257.717215  24659.687290   -455.089043
PE34  15982.341894  -3465.890084 -24671.590754    -22.103702
PE36  18991.404711  16910.604356 -15136.653693   -482.545274
PG01 -15716.905074  -2540.312143  21016.701791    231.251166
PG02  15083.265107  -2280.788401 -21088.098878   -630.387788
PG03 -19738.257713   7547.737899  15901.590232   -374.500232
PG04 -25710.516918    121.828451  -6886.516525    -59.258169
PG05  13927.814605   6583.294518 -21814.035735   -109.936176
PG06   4958.095681  25187.494077   6707.522579    549.390446
PG07 -10146.503016  13396.031327 -20024.023817    267.219011
PG08 -25532.780875  -6515.913750  -4740.359639   -101.011063
PG09 -19255.867546   8972.843430 -16051.369525   -245.498517
PG10   9255.471882 -22649.308526  10094.280297    -18.166491
PG11  12124.190707  22840.312766  -6137.857562    -66.927995
PG12  20027.541841  -5159.826111  16331.291247   -321.719463
PG13  20705.179437  13415.964090 -10259.748441    450.314577
PG14 -11864.360740  22401.108090   7725.555388    -59.599515
PG15  26022.425486   4007.767804  -4932.941961      0.052709
PG16 -10513.153227 -11011.699652 -22044.254226   -525.216940
PG17  -6550.041479  13892.028723  22118.227799    689.549431
PG18   8121.893220 -16124.352148 -19427.870222    -77.950418
PG19   6567.752880  15818.872969  20141.472011    257.003461
PG20   5840.244861  17656.747689 -19017.139381    460.454330
PG21 -18450.400741 -10508.319859  17026.008419    153.019876
PG22  -9745.627505 -16084.829385  19252.240732    394.781105
PG23  16465.351925 -20712.834896  -1080.430320      1.081267
PG24  18096.769144   6032.815380  18300.100356     -6.269517
PG25  19759.727534 -14729.786015   9213.649206    406.515280
PG26  -1403.006798 -20136.659164 -17193.232596    239.386755
PG27 -18644.615367 -12784.137446 -14491.855380    140.569080
PG29  21561.997551  -5228.336438 -14701.248353   -577.185876
PG30  -1556.193742  22924.879127 -13006.911259   -534.475136
PG31  -5777.880381 -25222.104894   4616.489667   -204.735789
PG32   2324.391914 -15149.897295  21846.623116   -346.295465
PJ02 -27721.198918  31207.686459  -1211.159232     -0.429437
PJ03 -24547.805682  24073.498424  29552.510267     -7.760943
PJ04 -33453.299181  24707.618463  -1777.970119    116.733530
PR01   7891.940597   8859.622020 -22582.646186     20.366386
PR02  22609.446757   -557.103459 -11685.980482    -23.345394
PR03  23046.746101  -9322.538311   5603.493140     69.955268
PR04  10838.912357 -12435.211039  19474.669756    170.384490
PR05  -7339.654137  -8960.689317  22737.924237    105.343386
PR07 -22839.478505   9545.029252  -6239.154301     47.015708
PR08 -10684.671400  12562.087456 -19418.768370    -68.747236
PR09 -10838.360645  -3338.786589 -22835.871673     95.666235
PR11  -6826.724333  24468.777837  -2239.753262     11.129901
PR12   2834.362823  19979.705261  15636.348264     23.964899
PR13  10075.917459   5108.223370  22850.639300    -30.426602
PR14  11987.041652 -14902.096876  16892.320456     24.157313
PR15   6626.968388 -24604.604294   1171.921065     92.050682
PR16  -2713.745344 -20174.138192 -15386.479966      9.285573
PR17  12445.647405  -1928.284510 -22173.735889    591.135825
PR18  -1060.795896 -14394.090427 -21024.214903     59.195750
PR19 -12529.386406 -19755.134822 -10159.265751   -216.308627
PR20 -19061.409731 -13452.427283  10377.613293    -84.854603
PR21 -11223.495706   3261.013700  22676.391557   -361.281585
PR22    855.600136  15116.307016  20555.852029     64.437618
PR24  19553.533426  12296.445077 -10814.441163    136.003743
PR25 -12950.943494   1247.763341  21946.447705     50.181567
EOF
